[
  {
    "CCSDS_OMM_VERS": "2.0",
    "COMMENT": "GENERATED VIA SPACE-TRACK.ORG API",
    "CREATION_DATE": "2025-03-20T06:26:34",
    "ORIGINATOR": "18 SPCS",
    "OBJECT_NAME": "NAVSTAR 54 (USA 177)",
    "OBJECT_ID": "2004-009A",
    "CENTER_NAME": "EARTH",
    "REF_FRAME": "TEME",
    "TIME_SYSTEM": "UTC",
    "MEAN_ELEMENT_THEORY": "SGP4",
    "EPOCH": "2025-03-19T22:32:26.752128",
    "MEAN_MOTION": "2.00570123",
    "ECCENTRICITY": "0.01018890",
    "INCLINATION": "55.2147",
    "RA_OF_ASC_NODE": "293.9938",
    "ARG_OF_PERICENTER": "157.4667",
    "MEAN_ANOMALY": "27.0622",
    "EPHEMERIS_TYPE": "0",
    "CLASSIFICATION_TYPE": "U",
    "NORAD_CAT_ID": "28190",
    "ELEMENT_SET_NO": "999",
    "REV_AT_EPOCH": "15386",
    "BSTAR": "0.00000000000000",
    "MEAN_MOTION_DOT": "-0.00000009",
    "MEAN_MOTION_DDOT": "0.0000000000000",
    "SEMIMAJOR_AXIS": "26559.772",
    "PERIOD": "717.953",
    "APOAPSIS": "20452.252",
    "PERIAPSIS": "19911.022",
    "OBJECT_TYPE": "PAYLOAD",
    "RCS_SIZE": "LARGE",
    "COUNTRY_CODE": "US",
    "LAUNCH_DATE": "2004-03-20",
    "SITE": "AFETR",
    "DECAY_DATE": null,
    "FILE": "4674471",
    "GP_ID": "283551963",
    "TLE_LINE0": "0 NAVSTAR 54 (USA 177)",
    "TLE_LINE1": "1 28190U 04009A   25078.93919852 -.00000009  00000-0  00000+0 0  9990",
    "TLE_LINE2": "2 28190  55.2147 293.9938 0101889 157.4667  27.0622  2.00570123153864"
  },
  {
    "CCSDS_OMM_VERS": "2.0",
    "COMMENT": "GENERATED VIA SPACE-TRACK.ORG API",
    "CREATION_DATE": "2025-03-20T19:29:49",
    "ORIGINATOR": "18 SPCS",
    "OBJECT_NAME": "NAVSTAR 69 (USA 248)",
    "OBJECT_ID": "2014-008A",
    "CENTER_NAME": "EARTH",
    "REF_FRAME": "TEME",
    "TIME_SYSTEM": "UTC",
    "MEAN_ELEMENT_THEORY": "SGP4",
    "EPOCH": "2025-03-19T23:28:04.041984",
    "MEAN_MOTION": "2.00558137",
    "ECCENTRICITY": "0.00767980",
    "INCLINATION": "53.6077",
    "RA_OF_ASC_NODE": "167.8366",
    "ARG_OF_PERICENTER": "223.2426",
    "MEAN_ANOMALY": "136.1954",
    "EPHEMERIS_TYPE": "0",
    "CLASSIFICATION_TYPE": "U",
    "NORAD_CAT_ID": "39533",
    "ELEMENT_SET_NO": "999",
    "REV_AT_EPOCH": "8057",
    "BSTAR": "0.00000000000000",
    "MEAN_MOTION_DOT": "0.00000007",
    "MEAN_MOTION_DDOT": "0.0000000000000",
    "SEMIMAJOR_AXIS": "26560.830",
    "PERIOD": "717.996",
    "APOAPSIS": "20386.677",
    "PERIAPSIS": "19978.714",
    "OBJECT_TYPE": "PAYLOAD",
    "RCS_SIZE": "LARGE",
    "COUNTRY_CODE": "US",
    "LAUNCH_DATE": "2014-02-21",
    "SITE": "AFETR",
    "DECAY_DATE": null,
    "FILE": "4675094",
    "GP_ID": "283580377",
    "TLE_LINE0": "0 NAVSTAR 69 (USA 248)",
    "TLE_LINE1": "1 39533U 14008A   25078.97782456  .00000007  00000-0  00000-0 0  9993",
    "TLE_LINE2": "2 39533  53.6077 167.8366 0076798 223.2426 136.1954  2.00558137 80578"
  },  
  {
    "CCSDS_OMM_VERS": "2.0",
    "COMMENT": "GENERATED VIA SPACE-TRACK.ORG API",
    "CREATION_DATE": "2025-03-24T23:06:33",
    "ORIGINATOR": "18 SPCS",
    "OBJECT_NAME": "NAVSTAR 82 (USA 343)",
    "OBJECT_ID": "2023-009A",
    "CENTER_NAME": "EARTH",
    "REF_FRAME": "TEME",
    "TIME_SYSTEM": "UTC",
    "MEAN_ELEMENT_THEORY": "SGP4",
    "EPOCH": "2025-03-20T11:56:38.725152",
    "MEAN_MOTION": "2.00574486",
    "ECCENTRICITY": "0.00020740",
    "INCLINATION": "55.0673",
    "RA_OF_ASC_NODE": "166.2161",
    "ARG_OF_PERICENTER": "351.3292",
    "MEAN_ANOMALY": "193.3098",
    "EPHEMERIS_TYPE": "0",
    "CLASSIFICATION_TYPE": "U",
    "NORAD_CAT_ID": "55268",
    "ELEMENT_SET_NO": "999",
    "REV_AT_EPOCH": "1619",
    "BSTAR": "0.00000000000000",
    "MEAN_MOTION_DOT": "0.00000003",
    "MEAN_MOTION_DDOT": "0.0000000000000",
    "SEMIMAJOR_AXIS": "26559.387",
    "PERIOD": "717.938",
    "APOAPSIS": "20186.761",
    "PERIAPSIS": "20175.744",
    "OBJECT_TYPE": "PAYLOAD",
    "RCS_SIZE": "LARGE",
    "COUNTRY_CODE": "US",
    "LAUNCH_DATE": "2023-01-18",
    "SITE": "AFETR",
    "DECAY_DATE": null,
    "FILE": "4679756",
    "GP_ID": "283945067",
    "TLE_LINE0": "0 NAVSTAR 82 (USA 343)",
    "TLE_LINE1": "1 55268U 23009A   25082.49767043  .00000003  00000-0  00000+0 0  9999",
    "TLE_LINE2": "2 55268  55.0673 166.2161 0002074 351.3292 193.3098  2.00574486 16191"
  }
]
